{
  "norad_id": 67555,
  "name": "STARLINK-36559",
  "history": [
    {
      "epoch": "2026-03-28T15:07:04.907424Z",
      "apogee_km": 345.2346806520809,
      "perigee_km": 342.0525896993877,
      "latitude_deg": -1.3351835623311648e-05,
      "longitude_deg": -79.34325714712831,
      "height_km": 347.8403039794125,
      "semi_major_axis_km": 6721.780635175734,
      "eccentricity": 0.0002367,
      "inclination_deg": 97.286,
      "raan_deg": 333.4748,
      "arg_perigee_deg": 130.384,
      "mean_anomaly_deg": 229.7632,
      "mean_motion_rev_day": 15.75347105
    },
    {
      "epoch": "2026-03-29T03:18:55.402272Z",
      "apogee_km": 344.7072479960725,
      "perigee_km": 343.1867125997287,
      "latitude_deg": 8.819536458898977e-05,
      "longitude_deg": 97.72830690866122,
      "height_km": 346.76358632377855,
      "semi_major_axis_km": 6722.0839802979,
      "eccentricity": 0.0001131,
      "inclination_deg": 97.2844,
      "raan_deg": 334.0077,
      "arg_perigee_deg": 62.5794,
      "mean_anomaly_deg": 297.5587,
      "mean_motion_rev_day": 15.75240471
    },
    {
      "epoch": "2026-03-30T03:42:36.588960Z",
      "apogee_km": 344.88873859384057,
      "perigee_km": 342.69335689344734,
      "latitude_deg": -1.3652125780674666e-05,
      "longitude_deg": 91.87185149916577,
      "height_km": 346.55386329448936,
      "semi_major_axis_km": 6721.928047743643,
      "eccentricity": 0.0001633,
      "inclination_deg": 97.2858,
      "raan_deg": 335.0747,
      "arg_perigee_deg": 68.4558,
      "mean_anomaly_deg": 291.6881,
      "mean_motion_rev_day": 15.75295284
    },
    {
      "epoch": "2026-03-30T05:14:04.932960Z",
      "apogee_km": 345.3258220170492,
      "perigee_km": 342.95124540752204,
      "latitude_deg": -1.561521424075314e-05,
      "longitude_deg": 69.00764118901766,
      "height_km": 348.01784605364344,
      "semi_major_axis_km": 6722.275533712285,
      "eccentricity": 0.00017662,
      "inclination_deg": 97.2854,
      "raan_deg": 335.1412,
      "arg_perigee_deg": 126.9149,
      "mean_anomaly_deg": 233.2278,
      "mean_motion_rev_day": 15.75173141
    }
  ]
}